IRIDIUM 921             
1 24873U 97034E   24172.37455162  .00023259  00000+0  58778-3 0  9994
2 24873  86.3811 286.5348 0003747 210.7975 149.3059 15.39668624475671
IRIDIUM 26              
1 24903U 97043A   24172.53331121  .00000499  00000+0  16376-3 0  9993
2 24903  86.3957 262.3498 0002116  99.8544 260.2892 14.36406067404814
IRIDIUM 22              
1 24907U 97043E   24172.52184870  .00000470  00000+0  15723-3 0  9997
2 24907  86.3960 265.5951 0002210  93.8766 266.2683 14.35294157404881
DUMMY MASS 1            
1 24925U 97048A   24172.42483147  .00000534  00000+0  57524-4 0  9997
2 24925  86.3339 302.4924 0006724   8.9772 351.1571 14.86249378451388
DUMMY MASS 2            
1 24926U 97048B   24172.39464984  .00000532  00000+0  57627-4 0  9994
2 24926  86.3339 304.0503 0007943  17.4488 342.7007 14.86007306451162
IRIDIUM 29              
1 24944U 97051A   24172.38429768  .00000464  00000+0  15390-3 0  9992
2 24944  86.3949 295.5632 0002150  87.0025 273.1417 14.35742071401347
IRIDIUM 33              
1 24946U 97051C   24172.41404738  .00000376  00000+0  12669-3 0  9996
2 24946  86.3864 294.8018 0008336 164.5101 195.6351 14.34392540400876
IRIDIUM 28              
1 24948U 97051E   24172.38608287  .00000487  00000+0  15863-3 0  9991
2 24948  86.3954 293.2836 0002130 105.1587 254.9845 14.36696058401886
